{
  "type": "FeatureCollection",
  "features": [
    {
      "type": "Feature",
      "properties": {
        "norad_id": 33860,
        "name": "IRIDIUM 33 DEB",
        "group": "iridium-33-debris",
        "lat": 45.62162830646771,
        "lon": -153.65967263442448,
        "alt_km": 668.584768874397,
        "timestamp": "2025-12-06T09:34:17.299108+00:00",
        "meta_object_name": "IRIDIUM 33 DEB",
        "meta_object_id": "1997-051AD",
        "meta_epoch": "2025-12-05T22:18:37.224864",
        "meta_mean_motion": 14.67231714,
        "meta_eccentricity": 0.00083511,
        "meta_inclination": 86.3845,
        "meta_ra_of_asc_node": 30.2526,
        "meta_arg_of_pericenter": 20.1775,
        "meta_mean_anomaly": 157.1213,
        "meta_ephemeris_type": 0,
        "meta_classification_type": "U",
        "meta_norad_cat_id": 33860,
        "meta_element_set_no": 999,
        "meta_rev_at_epoch": 88622,
        "meta_bstar": 0.0019755144,
        "meta_mean_motion_dot": 0.00011159,
        "meta_mean_motion_ddot": 0,
        "tle_line1": "1 33860U 97051AD  25339.92959751  .00011159  00000+0  19755-2 0  9996",
        "tle_line2": "2 33860  86.3845  30.2526 0008351  20.1775 157.1213 14.67231714886225"
      },
      "geometry": {
        "type": "Point",
        "coordinates": [
          -153.65967263442448,
          45.62162830646771
        ]
      }
    },
    {
      "type": "Feature",
      "properties": {
        "norad_id": 33862,
        "name": "IRIDIUM 33 DEB",
        "group": "iridium-33-debris",
        "lat": 57.705474866420374,
        "lon": -145.3748101319802,
        "alt_km": 625.5369726324061,
        "timestamp": "2025-12-06T09:34:17.299119+00:00",
        "meta_object_name": "IRIDIUM 33 DEB",
        "meta_object_id": "1997-051AF",
        "meta_epoch": "2025-12-05T17:15:09.829728",
        "meta_mean_motion": 14.69303234,
        "meta_eccentricity": 0.00538024,
        "meta_inclination": 86.4096,
        "meta_ra_of_asc_node": 40.6261,
        "meta_arg_of_pericenter": 92.5454,
        "meta_mean_anomaly": 34.9323,
        "meta_ephemeris_type": 0,
        "meta_classification_type": "U",
        "meta_norad_cat_id": 33862,
        "meta_element_set_no": 999,
        "meta_rev_at_epoch": 88720,
        "meta_bstar": 0.0025533925,
        "meta_mean_motion_dot": 0.00015448,
        "meta_mean_motion_ddot": 0,
        "tle_line1": "1 33862U 97051AF  25339.71886377  .00015448  00000+0  25534-2 0  9995",
        "tle_line2": "2 33862  86.4096  40.6261 0053802  92.5454  34.9323 14.69303234887207"
      },
      "geometry": {
        "type": "Point",
        "coordinates": [
          -145.3748101319802,
          57.705474866420374
        ]
      }
    },
    {
      "type": "Feature",
      "properties": {
        "norad_id": 33866,
        "name": "IRIDIUM 33 DEB",
        "group": "iridium-33-debris",
        "lat": 67.86568432229475,
        "lon": -93.43486494488428,
        "alt_km": 772.0805251120264,
        "timestamp": "2025-12-06T09:34:17.299131+00:00",
        "meta_object_name": "IRIDIUM 33 DEB",
        "meta_object_id": "1997-051AK",
        "meta_epoch": "2025-12-05T20:10:21.506016",
        "meta_mean_motion": 14.2523717,
        "meta_eccentricity": 0.01138993,
        "meta_inclination": 86.3003,
        "meta_ra_of_asc_node": 95.9543,
        "meta_arg_of_pericenter": 183.391,
        "meta_mean_anomaly": 306.941,
        "meta_ephemeris_type": 0,
        "meta_classification_type": "U",
        "meta_norad_cat_id": 33866,
        "meta_element_set_no": 999,
        "meta_rev_at_epoch": 86712,
        "meta_bstar": 0.0013932117,
        "meta_mean_motion_dot": 3.523e-05,
        "meta_mean_motion_ddot": 0,
        "tle_line1": "1 33866U 97051AK  25339.84052669  .00003523  00000+0  13932-2 0  9992",
        "tle_line2": "2 33866  86.3003  95.9543 0113899 183.3910 306.9410 14.25237170867128"
      },
      "geometry": {
        "type": "Point",
        "coordinates": [
          -93.43486494488428,
          67.86568432229475
        ]
      }
    },
    {
      "type": "Feature",
      "properties": {
        "norad_id": 33867,
        "name": "IRIDIUM 33 DEB",
        "group": "iridium-33-debris",
        "lat": -82.78087329232872,
        "lon": -156.47266542190758,
        "alt_km": 409.60967542951676,
        "timestamp": "2025-12-06T09:34:17.299142+00:00",
        "meta_object_name": "IRIDIUM 33 DEB",
        "meta_object_id": "1997-051AL",
        "meta_epoch": "2025-12-05T10:51:01.904832",
        "meta_mean_motion": 15.56599814,
        "meta_eccentricity": 0.00122699,
        "meta_inclination": 86.362,
        "meta_ra_of_asc_node": 353.8586,
        "meta_arg_of_pericenter": 94.994,
        "meta_mean_anomaly": 265.2724,
        "meta_ephemeris_type": 0,
        "meta_classification_type": "U",
        "meta_norad_cat_id": 33867,
        "meta_element_set_no": 999,
        "meta_rev_at_epoch": 89397,
        "meta_bstar": 0.0089580723,
        "meta_mean_motion_dot": 0.00693819,
        "meta_mean_motion_ddot": 0,
        "tle_line1": "1 33867U 97051AL  25339.45210538  .00693819  00000+0  89581-2 0  9997",
        "tle_line2": "2 33867  86.3620 353.8586 0012269  94.9940 265.2724 15.56599814893974"
      },
      "geometry": {
        "type": "Point",
        "coordinates": [
          -156.47266542190758,
          -82.78087329232872
        ]
      }
    },
    {
      "type": "Feature",
      "properties": {
        "norad_id": 33870,
        "name": "IRIDIUM 33 DEB",
        "group": "iridium-33-debris",
        "lat": 76.72662696870029,
        "lon": -134.60770307471978,
        "alt_km": 733.8885292760606,
        "timestamp": "2025-12-06T09:34:17.299152+00:00",
        "meta_object_name": "IRIDIUM 33 DEB",
        "meta_object_id": "1997-051AP",
        "meta_epoch": "2025-12-05T23:57:08.939232",
        "meta_mean_motion": 14.45793043,
        "meta_eccentricity": 0.00207613,
        "meta_inclination": 86.3755,
        "meta_ra_of_asc_node": 61.1507,
        "meta_arg_of_pericenter": 200.4996,
        "meta_mean_anomaly": 337.759,
        "meta_ephemeris_type": 0,
        "meta_classification_type": "U",
        "meta_norad_cat_id": 33870,
        "meta_element_set_no": 999,
        "meta_rev_at_epoch": 88039,
        "meta_bstar": 0.0014705365,
        "meta_mean_motion_dot": 5.247e-05,
        "meta_mean_motion_ddot": 0,
        "tle_line1": "1 33870U 97051AP  25339.99802013  .00005247  00000+0  14705-2 0  9993",
        "tle_line2": "2 33870  86.3755  61.1507 0020761 200.4996 337.7590 14.45793043880395"
      },
      "geometry": {
        "type": "Point",
        "coordinates": [
          -134.60770307471978,
          76.72662696870029
        ]
      }
    },
    {
      "type": "Feature",
      "properties": {
        "norad_id": 33881,
        "name": "IRIDIUM 33 DEB",
        "group": "iridium-33-debris",
        "lat": 85.69224778102605,
        "lon": 166.50846656473283,
        "alt_km": 710.2231416949462,
        "timestamp": "2025-12-06T09:34:17.299163+00:00",
        "meta_object_name": "IRIDIUM 33 DEB",
        "meta_object_id": "1997-051BA",
        "meta_epoch": "2025-12-05T20:31:44.051808",
        "meta_mean_motion": 14.56380103,
        "meta_eccentricity": 0.006125,
        "meta_inclination": 86.3871,
        "meta_ra_of_asc_node": 109.733,
        "meta_arg_of_pericenter": 197.0715,
        "meta_mean_anomaly": 283.839,
        "meta_ephemeris_type": 0,
        "meta_classification_type": "U",
        "meta_norad_cat_id": 33881,
        "meta_element_set_no": 999,
        "meta_rev_at_epoch": 87400,
        "meta_bstar": 0.0035632862,
        "meta_mean_motion_dot": 0.00016254,
        "meta_mean_motion_ddot": 0,
        "tle_line1": "1 33881U 97051BA  25339.85537097  .00016254  00000+0  35633-2 0  9990",
        "tle_line2": "2 33881  86.3871 109.7330 0061250 197.0715 283.8390 14.56380103874008"
      },
      "geometry": {
        "type": "Point",
        "coordinates": [
          166.50846656473283,
          85.69224778102605
        ]
      }
    },
    {
      "type": "Feature",
      "properties": {
        "norad_id": 33884,
        "name": "IRIDIUM 33 DEB",
        "group": "iridium-33-debris",
        "lat": -79.74845443999028,
        "lon": -7.873753643658686,
        "alt_km": 642.7088186096198,
        "timestamp": "2025-12-06T09:34:17.299174+00:00",
        "meta_object_name": "IRIDIUM 33 DEB",
        "meta_object_id": "1997-051BD",
        "meta_epoch": "2025-12-05T13:29:05.481600",
        "meta_mean_motion": 14.77223176,
        "meta_eccentricity": 0.0010405,
        "meta_inclination": 86.3691,
        "meta_ra_of_asc_node": 13.0584,
        "meta_arg_of_pericenter": 350.5114,
        "meta_mean_anomaly": 161.234,
        "meta_ephemeris_type": 0,
        "meta_classification_type": "U",
        "meta_norad_cat_id": 33884,
        "meta_element_set_no": 999,
        "meta_rev_at_epoch": 88741,
        "meta_bstar": 0.0024048177,
        "meta_mean_motion_dot": 0.00017096,
        "meta_mean_motion_ddot": 0,
        "tle_line1": "1 33884U 97051BD  25339.56186900  .00017096  00000+0  24048-2 0  9997",
        "tle_line2": "2 33884  86.3691  13.0584 0010405 350.5114 161.2340 14.77223176887416"
      },
      "geometry": {
        "type": "Point",
        "coordinates": [
          -7.873753643658686,
          -79.74845443999028
        ]
      }
    }
  ]
}